POLYITAN-1              
1 40042U 14033AJ  26198.58432222  .00009903  00000+0  30090-3 0  9990
2 40042  98.0931 227.7445 0007692  57.2583 302.9398 15.34270589658251
TIGRISAT                
1 40043U 14033AK  26198.36563392  .00000680  00000+0  84001-4 0  9995
2 40043  97.7867 347.6934 0048463 337.1451  22.7607 14.85252924650100
AEROCUBE 6A             
1 40045U 14033AM  26197.94391534  .00003216  00000+0  27140-3 0  9995
2 40045  97.7255   4.5832 0036190 274.9272  84.7819 14.98354655651070
AEROCUBE 6B             
1 40046U 14033AN  26197.98401539  .00002456  00000+0  20058-3 0  9993
2 40046  97.7204   4.4736 0038103 263.7831  95.9051 14.99807134651225
CANX-4                  
1 40055U 14034C   26198.61664449  .00000360  00000+0  53443-4 0  9993
2 40055  98.3079  75.0414 0011374 274.1361  85.8550 14.81313347649031
CANX-5                  
1 40056U 14034D   26198.61472215  .00000359  00000+0  53318-4 0  9991
2 40056  98.3082  75.0848 0011376 274.3961  85.5950 14.81330705639843
UKUBE-1                 
1 40074U 14037F   26198.44242848  .00004406  00000+0  24726-3 0  9999
2 40074  98.4243 204.9043 0003208  84.0580 276.1015 15.13969103653135
BRITE-PL2 (HEWELIUSZ)   
1 40119U 14049B   26197.89668719  .00000489  00000+0  50495-4 0  9999
2 40119  97.9120 310.1310 0014171  16.6624 343.5058 14.94689258645888
AEROCUBE 5C             
1 40965U 15058B   26198.07512415  .00001675  00000+0  15601-3 0  9998
2 40965  64.7659 169.5990 0132479  51.7262 309.5681 14.91582977370118
AEROCUBE 7              
1 40966U 15058C   26197.98547332  .00002653  00000+0  21755-3 0  9998
2 40966  64.7615 151.4659 0122160  50.0788 311.0985 14.95923765370410
FOX-1A (AO-85)          
1 40967U 15058D   26198.40070854  .00001604  00000+0  15191-3 0  9999
2 40967  64.7725 185.0785 0132537  44.9727 316.2027 14.91095970118070
SINOD-D 1               
1 40968U 15058E   26198.36096900  .00002718  00000+0  22190-3 0  9999
2 40968  64.7739 164.4048 0121239  41.3410 319.6802 14.96100252121174
SNAP-3 ALICE            
1 40970U 15058G   26198.41910521  .00098749  00000+0  87459-3 0  9990
2 40970  64.7498 358.8171 0025171 346.8041  13.2446 15.67667935121611
LMRST-SAT               
1 40971U 15058H   26198.56503910  .00001515  00000+0  14526-3 0  9997
2 40971  64.7732 180.9639 0134106  46.9094 314.3147 14.90711305118087
SNAP-3 EDDIE            
1 40972U 15058J   26197.81104900  .00105052  00000+0  88046-3 0  9990
2 40972  64.7408 351.4391 0026072 349.8624  10.1996 15.68956444123668
PROPCUBE 3              
1 40973U 15058K   26198.59254602  .00002194  00000+0  18810-3 0  9997
2 40973  64.7677 157.5246 0125963  48.0990 313.0784 14.94427244119343
BISONSAT                
1 40974U 15058L   26198.62994887  .00007265  00000+0  34529-3 0  9997
2 40974  64.7580  75.1554 0082368  34.8210 325.8265 15.16970992120236
SNAP-3 JIMI             
1 40975U 15058M   26198.20855708  .00003885  00000+0  26869-3 0  9992
2 40975  64.7650 124.7624 0107996  43.5616 317.3966 15.02625998118730
PROPCUBE 1 (FLORA)      
1 40976U 15058N   26198.41360078  .00001295  00000+0  13141-3 0  9999
2 40976  64.7717 201.5466 0132647  49.2408 312.0126 14.89334482120761
SINOD-D 3               
1 40977U 15058P   26198.36137703  .00002198  00000+0  19171-3 0  9993
2 40977  64.7707 181.5805 0121246  46.3024 314.8057 14.94183837119268
RAVAN                   
1 41849U 16067B   26197.68716448  .00037324  00000+0  50618-3 0  9996
2 41849  97.9839  90.7306 0002422 209.8992 150.2123 15.57575989532282
CELTEE 1                
1 41850U 16067C   26198.09773583  .00002721  00000+0  13018-3 0  9993
2 41850  98.0628  66.7044 0002362 107.7309 252.4182 15.19951703530429
OPTICUBE 04             
1 41851U 16067D   26198.10337725  .00000881  00000+0  58836-4 0  9993
2 41851  98.0673  51.9459 0016038  21.6935 338.4969 15.09776222529684
AEROCUBE 8D             
1 41852U 16067E   26198.08388691  .00004067  00000+0  16734-3 0  9999
2 41852  98.0637  70.5317 0004474  51.9450 308.2189 15.24785915530625
AEROCUBE 8C             
1 41853U 16067F   26198.10392320  .00003851  00000+0  15744-3 0  9997
2 41853  98.0511  67.7427 0004029 334.0627  26.0407 15.25039218530621
CORVUS BC2              
1 42846U 17042X   26198.41861618  .00001110  00000+0  79109-4 0  9991
2 42846  97.4093 358.6012 0013235  15.5985 344.5648 15.06462112491613
CORVUS BC1              
1 42847U 17042Y   26198.40990491  .00001496  00000+0  10483-3 0  9999
2 42847  97.4124 359.4265 0011421 352.1585   7.9462 15.06626122491649
MAKERSAT 0              
1 43016U 17073D   26198.40994390  .00011512  00000+0  30369-3 0  9999
2 43016  97.4574  81.1775 0105553 164.4001 196.0537 15.33060135471095
SIRION PATHFINDER-2     
1 43759U 18099B   26198.37239941  .00001952  00000+0  10860-3 0  9993
2 43759  97.4235 246.7144 0008681 183.7729 176.3440 15.14786252417196
CORVUS BC4              
1 43767U 18099K   26198.08939888  .00001760  00000+0  10409-3 0  9993
2 43767  97.4048 240.1958 0006572 252.7668 107.2844 15.12709455416923
